STARLINK-36706          
1 67657U 26022K   26048.83335647 -.00014822  00000+0 -98674-4 0  9998
2 67657  97.2846  81.8432 0001535 100.9556 269.7938 15.75190257  3677
STARLINK-36701          
1 67658U 26022L   26048.83335647  .00044454  00000+0  29760-3 0  9990
2 67658  97.2845  81.8466 0001317  91.6423 285.0983 15.75170572  3704
STARLINK-36642          
1 67659U 26022M   26048.83335647 -.00115459  00000+0 -78176-3 0  9992
2 67659  97.2842  81.8487 0001237  90.9468 291.7763 15.75247413  3706
STARLINK-36673          
1 67660U 26022N   26048.83335647  .00092984  00000+0  61861-3 0  9992
2 67660  97.2848  81.8524 0001448 100.6310 290.1168 15.75148586  3708
STARLINK-36674          
1 67661U 26022P   26048.83335647  .00015144  00000+0  10224-3 0  9993
2 67661  97.2858  81.8548 0001397 110.5841 288.1513 15.75185632  3702
STARLINK-36700          
1 67662U 26022Q   26048.83335647  .00064872  00000+0  43282-3 0  9996
2 67662  97.2859  81.8594 0001522 106.2672 304.4647 15.75173024  3701
STARLINK-36675          
1 67663U 26022R   26048.83335647 -.00054042  00000+0 -36301-3 0  9991
2 67663  97.2849  81.8574 0001472  80.9736 321.7452 15.75236342  3701
STARLINK-36404          
1 67664U 26022S   26048.83335647 -.00017240  00000+0 -11487-3 0  9999
2 67664  97.2852  81.8635 0000896  83.8498 336.8814 15.75206185  3677
STARLINK-36399          
1 67665U 26022T   26048.83335647  .00109196  00000+0  72515-3 0  9999
2 67665  97.2850  81.8659 0001005  94.0840 330.6642 15.75142180  3675
STARLINK-36365          
1 67666U 26022U   26048.83335647  .00173752  00000+0  11451-2 0  9990
2 67666  97.2847  81.8691 0001345  88.6622 343.6779 15.75132162  3700
STARLINK-36622          
1 67667U 26022V   26048.83335647  .00048409  00000+0  32340-3 0  9992
2 67667  97.2848  81.8734 0001312  75.0493   7.6197 15.75203161  3709
STARLINK-36625          
1 67668U 26022W   26048.83335647  .00043290  00000+0  28987-3 0  9998
2 67668  97.2849  81.8768 0001342  92.6478 358.0861 15.75170752  3709
